[
    {
        "CCSDS_OMM_VERS": "3.0",
        "COMMENT": "GENERATED VIA SPACE-TRACK.ORG API",
        "CREATION_DATE": "2025-04-14T03:05:54",
        "ORIGINATOR": "18 SPCS",
        "OBJECT_NAME": "BEIDOU 3M12",
        "OBJECT_ID": "2018-067B",
        "CENTER_NAME": "EARTH",
        "REF_FRAME": "TEME",
        "TIME_SYSTEM": "UTC",
        "MEAN_ELEMENT_THEORY": "SGP4",
        "EPOCH": "2025-04-12T22:32:01.246848",
        "MEAN_MOTION": "1.86227428",
        "ECCENTRICITY": "0.00041320",
        "INCLINATION": "54.1924",
        "RA_OF_ASC_NODE": "195.5955",
        "ARG_OF_PERICENTER": "20.6992",
        "MEAN_ANOMALY": "339.3526",
        "EPHEMERIS_TYPE": "0",
        "CLASSIFICATION_TYPE": "U",
        "NORAD_CAT_ID": "43603",
        "ELEMENT_SET_NO": "999",
        "REV_AT_EPOCH": "4513",
        "BSTAR": "0.00000000000000",
        "MEAN_MOTION_DOT": "0.00000013",
        "MEAN_MOTION_DDOT": "0.0000000000000",
        "SEMIMAJOR_AXIS": "27906.545",
        "PERIOD": "773.248",
        "APOAPSIS": "21539.941",
        "PERIAPSIS": "21516.879",
        "OBJECT_TYPE": "PAYLOAD",
        "RCS_SIZE": "LARGE",
        "COUNTRY_CODE": "PRC",
        "LAUNCH_DATE": "2018-08-24",
        "SITE": "XSC",
        "DECAY_DATE": null,
        "FILE": "4701263",
        "GP_ID": "285538989",
        "TLE_LINE0": "0 BEIDOU 3M12",
        "TLE_LINE1": "1 43603U 18067B   25102.93890332  .00000013  00000-0  00000-0 0  9999",
        "TLE_LINE2": "2 43603  54.1924 195.5955 0004132  20.6992 339.3526  1.86227428 45134"
    }
]